{
  "type": "FeatureCollection",
  "features": [
    {
      "type": "Feature",
      "properties": {
        "norad_id": 66683,
        "name": "TRANSPORTER-15T",
        "group": "last-30-days",
        "lat": 60.451136538330104,
        "lon": 59.11074597665217,
        "alt_km": 512.0770311140141,
        "timestamp": "2025-12-26T22:28:04.496875+00:00",
        "meta_object_name": "TRANSPORTER-15T",
        "meta_object_id": "2025-276T",
        "meta_epoch": "2025-12-26T17:26:57.501888",
        "meta_mean_motion": 15.17068263,
        "meta_eccentricity": 0.0004891,
        "meta_inclination": 97.4444,
        "meta_ra_of_asc_node": 72.2408,
        "meta_arg_of_pericenter": 224.4706,
        "meta_mean_anomaly": 135.6135,
        "meta_ephemeris_type": 0,
        "meta_classification_type": "U",
        "meta_norad_cat_id": 66683,
        "meta_element_set_no": 999,
        "meta_rev_at_epoch": 424,
        "meta_bstar": 0.00025717,
        "meta_mean_motion_dot": 5.026e-05,
        "meta_mean_motion_ddot": 0,
        "tle_line1": "1 66683U 25276T   25360.72705442  .00005026  00000+0  25717-3 0  9995",
        "tle_line2": "2 66683  97.4444  72.2408 0004891 224.4706 135.6135 15.17068263  4246"
      },
      "geometry": {
        "type": "Point",
        "coordinates": [
          59.11074597665217,
          60.451136538330104
        ]
      }
    },
    {
      "type": "Feature",
      "properties": {
        "norad_id": 66684,
        "name": "TRANSPORTER-15U",
        "group": "last-30-days",
        "lat": 79.91748684656787,
        "lon": 25.105981682451333,
        "alt_km": 508.69510880966936,
        "timestamp": "2025-12-26T22:28:04.496887+00:00",
        "meta_object_name": "TRANSPORTER-15U",
        "meta_object_id": "2025-276U",
        "meta_epoch": "2025-12-26T17:21:15.981696",
        "meta_mean_motion": 15.17414455,
        "meta_eccentricity": 0.0004661,
        "meta_inclination": 97.4468,
        "meta_ra_of_asc_node": 72.2546,
        "meta_arg_of_pericenter": 222.9491,
        "meta_mean_anomaly": 137.1379,
        "meta_ephemeris_type": 0,
        "meta_classification_type": "U",
        "meta_norad_cat_id": 66684,
        "meta_element_set_no": 999,
        "meta_rev_at_epoch": 424,
        "meta_bstar": 0.00061081,
        "meta_mean_motion_dot": 0.0001216,
        "meta_mean_motion_ddot": 0,
        "tle_line1": "1 66684U 25276U   25360.72310164  .00012160  00000+0  61081-3 0  9990",
        "tle_line2": "2 66684  97.4468  72.2546 0004661 222.9491 137.1379 15.17414455  4240"
      },
      "geometry": {
        "type": "Point",
        "coordinates": [
          25.105981682451333,
          79.91748684656787
        ]
      }
    },
    {
      "type": "Feature",
      "properties": {
        "norad_id": 66685,
        "name": "TRANSPORTER-15V",
        "group": "last-30-days",
        "lat": 82.35680829185453,
        "lon": -30.65621124102915,
        "alt_km": 508.243078116132,
        "timestamp": "2025-12-26T22:28:04.496897+00:00",
        "meta_object_name": "TRANSPORTER-15V",
        "meta_object_id": "2025-276V",
        "meta_epoch": "2025-12-26T03:04:19.749504",
        "meta_mean_motion": 15.17397324,
        "meta_eccentricity": 0.00032136,
        "meta_inclination": 97.4413,
        "meta_ra_of_asc_node": 71.6542,
        "meta_arg_of_pericenter": 231.2605,
        "meta_mean_anomaly": 128.8342,
        "meta_ephemeris_type": 0,
        "meta_classification_type": "U",
        "meta_norad_cat_id": 66685,
        "meta_element_set_no": 999,
        "meta_rev_at_epoch": 415,
        "meta_bstar": -0.0041618973,
        "meta_mean_motion_dot": -0.00082255,
        "meta_mean_motion_ddot": 0,
        "tle_line1": "1 66685U 25276V   25360.12800636 -.00082255  00000+0 -41619-2 0  9991",
        "tle_line2": "2 66685  97.4413  71.6542 0003213 231.2605 128.8342 15.17397324  4154"
      },
      "geometry": {
        "type": "Point",
        "coordinates": [
          -30.65621124102915,
          82.35680829185453
        ]
      }
    },
    {
      "type": "Feature",
      "properties": {
        "norad_id": 66686,
        "name": "TRANSPORTER-15W",
        "group": "last-30-days",
        "lat": 80.67797834341378,
        "lon": 19.678228352082012,
        "alt_km": 514.543796548629,
        "timestamp": "2025-12-26T22:28:04.496911+00:00",
        "meta_object_name": "TRANSPORTER-15W",
        "meta_object_id": "2025-276W",
        "meta_epoch": "2025-12-24T16:18:47.855520",
        "meta_mean_motion": 15.18035485,
        "meta_eccentricity": 0.00181838,
        "meta_inclination": 97.4405,
        "meta_ra_of_asc_node": 70.2223,
        "meta_arg_of_pericenter": 243.6801,
        "meta_mean_anomaly": 116.2566,
        "meta_ephemeris_type": 0,
        "meta_classification_type": "U",
        "meta_norad_cat_id": 66686,
        "meta_element_set_no": 999,
        "meta_rev_at_epoch": 393,
        "meta_bstar": 0.0029615296,
        "meta_mean_motion_dot": 0.00060911,
        "meta_mean_motion_ddot": 0,
        "tle_line1": "1 66686U 25276W   25358.67972055  .00060911  00000+0  29615-2 0  9999",
        "tle_line2": "2 66686  97.4405  70.2223 0018183 243.6801 116.2566 15.18035485  3936"
      },
      "geometry": {
        "type": "Point",
        "coordinates": [
          19.678228352082012,
          80.67797834341378
        ]
      }
    },
    {
      "type": "Feature",
      "properties": {
        "norad_id": 66687,
        "name": "TRANSPORTER-15X",
        "group": "last-30-days",
        "lat": 31.88266915987711,
        "lon": 67.749012676333,
        "alt_km": 508.2062425701997,
        "timestamp": "2025-12-26T22:28:04.496924+00:00",
        "meta_object_name": "TRANSPORTER-15X",
        "meta_object_id": "2025-276X",
        "meta_epoch": "2025-12-26T17:34:36.647904",
        "meta_mean_motion": 15.16805458,
        "meta_eccentricity": 0.0008104,
        "meta_inclination": 97.4384,
        "meta_ra_of_asc_node": 72.2105,
        "meta_arg_of_pericenter": 41.628,
        "meta_mean_anomaly": 318.5569,
        "meta_ephemeris_type": 0,
        "meta_classification_type": "U",
        "meta_norad_cat_id": 66687,
        "meta_element_set_no": 999,
        "meta_rev_at_epoch": 424,
        "meta_bstar": 0.00066506,
        "meta_mean_motion_dot": 0.00013026,
        "meta_mean_motion_ddot": 0,
        "tle_line1": "1 66687U 25276X   25360.73236861  .00013026  00000+0  66506-3 0  9994",
        "tle_line2": "2 66687  97.4384  72.2105 0008104  41.6280 318.5569 15.16805458  4241"
      },
      "geometry": {
        "type": "Point",
        "coordinates": [
          67.749012676333,
          31.88266915987711
        ]
      }
    },
    {
      "type": "Feature",
      "properties": {
        "norad_id": 66688,
        "name": "TRANSPORTER-15Y",
        "group": "last-30-days",
        "lat": 70.19261801937809,
        "lon": 51.1629489254628,
        "alt_km": 509.9930042363676,
        "timestamp": "2025-12-26T22:28:04.496934+00:00",
        "meta_object_name": "TRANSPORTER-15Y",
        "meta_object_id": "2025-276Y",
        "meta_epoch": "2025-12-26T15:49:17.606784",
        "meta_mean_motion": 15.17138804,
        "meta_eccentricity": 0.0003811,
        "meta_inclination": 97.4426,
        "meta_ra_of_asc_node": 72.1727,
        "meta_arg_of_pericenter": 223.3358,
        "meta_mean_anomaly": 136.7576,
        "meta_ephemeris_type": 0,
        "meta_classification_type": "U",
        "meta_norad_cat_id": 66688,
        "meta_element_set_no": 999,
        "meta_rev_at_epoch": 423,
        "meta_bstar": 0.00047879,
        "meta_mean_motion_dot": 9.438e-05,
        "meta_mean_motion_ddot": 0,
        "tle_line1": "1 66688U 25276Y   25360.65923156  .00009438  00000+0  47879-3 0  9990",
        "tle_line2": "2 66688  97.4426  72.1727 0003811 223.3358 136.7576 15.17138804  4235"
      },
      "geometry": {
        "type": "Point",
        "coordinates": [
          51.1629489254628,
          70.19261801937809
        ]
      }
    },
    {
      "type": "Feature",
      "properties": {
        "norad_id": 66689,
        "name": "TRANSPORTER-15Z",
        "group": "last-30-days",
        "lat": -24.655828046059593,
        "lon": 75.9810731353286,
        "alt_km": 433.95574673199735,
        "timestamp": "2025-12-26T22:28:04.496944+00:00",
        "meta_object_name": "TRANSPORTER-15Z",
        "meta_object_id": "2025-276Z",
        "meta_epoch": "2025-12-22T21:27:46.425312",
        "meta_mean_motion": 15.23073772,
        "meta_eccentricity": 0.00272271,
        "meta_inclination": 97.4409,
        "meta_ra_of_asc_node": 68.4858,
        "meta_arg_of_pericenter": 260.8557,
        "meta_mean_anomaly": 98.9599,
        "meta_ephemeris_type": 0,
        "meta_classification_type": "U",
        "meta_norad_cat_id": 66689,
        "meta_element_set_no": 999,
        "meta_rev_at_epoch": 366,
        "meta_bstar": 0.086131248,
        "meta_mean_motion_dot": 0.02294864,
        "meta_mean_motion_ddot": 0,
        "tle_line1": "1 66689U 25276Z   25356.89428733  .02294864  00000+0  86131-1 0  9996",
        "tle_line2": "2 66689  97.4409  68.4858 0027227 260.8557  98.9599 15.23073772  3663"
      },
      "geometry": {
        "type": "Point",
        "coordinates": [
          75.9810731353286,
          -24.655828046059593
        ]
      }
    }
  ]
}